ONEWEB-0694             
1 56722U 23068N   24070.90294858  .00000111  00000+0  25708-3 0  9996
2 56722  87.9096  33.5854 0001898  98.6868 261.4477 13.16594062 42781
ONEWEB-0696             
1 56723U 23068P   24071.21259363  .00000050  00000+0  98037-4 0  9992
2 56723  87.8964  64.0040 0002045  78.3211 281.8148 13.15547181 41209
ONEWEB-0703             
1 56724U 23068Q   24071.45027048  .00000799  00000+0  20892-2 0  9994
2 56724  87.8963  63.9781 0002696  59.4994 300.6402 13.15553927 41128
ONEWEB-0721             
1 56725U 23068R   24070.92315189  .00003736  00000+0  44204-3 0  9990
2 56725  86.6819  17.1302 0008052 259.0213 101.0105 14.84346782 43930
